[{"OBJECT_NAME":"STARLINK-34435","OBJECT_ID":"2025-137J","EPOCH":"2026-03-09T22:52:47.555616","MEAN_MOTION":15.30203374,"ECCENTRICITY":0.00012293,"INCLINATION":53.1582,"RA_OF_ASC_NODE":334.1271,"ARG_OF_PERICENTER":127.801,"MEAN_ANOMALY":232.3102,"EPHEMERIS_TYPE":0,"CLASSIFICATION_TYPE":"U","NORAD_CAT_ID":64602,"ELEMENT_SET_NO":999,"REV_AT_EPOCH":4077,"BSTAR":0.00059822636,"MEAN_MOTION_DOT":0.00017402,"MEAN_MOTION_DDOT":0},{"OBJECT_NAME":"SL-3 R\/B","OBJECT_ID":"1981-065B","EPOCH":"2026-03-09T21:58:16.284000","MEAN_MOTION":15.33300883,"ECCENTRICITY":0.00117648,"INCLINATION":97.6337,"RA_OF_ASC_NODE":111.1786,"ARG_OF_PERICENTER":10.529,"MEAN_ANOMALY":349.6196,"EPHEMERIS_TYPE":0,"CLASSIFICATION_TYPE":"U","NORAD_CAT_ID":12586,"ELEMENT_SET_NO":999,"REV_AT_EPOCH":43499,"BSTAR":0.00030084921,"MEAN_MOTION_DOT":9.62e-5,"MEAN_MOTION_DDOT":0}]
